[{"OBJECT_NAME":"STARLINK-1598","OBJECT_ID":"2020-057AV","EPOCH":"2026-03-09T20:27:31.815648","MEAN_MOTION":15.51269749,"ECCENTRICITY":0.00039579,"INCLINATION":53.0523,"RA_OF_ASC_NODE":282.8252,"ARG_OF_PERICENTER":206.2678,"MEAN_ANOMALY":153.813,"EPHEMERIS_TYPE":0,"CLASSIFICATION_TYPE":"U","NORAD_CAT_ID":46160,"ELEMENT_SET_NO":999,"REV_AT_EPOCH":30780,"BSTAR":0.0019256544,"MEAN_MOTION_DOT":0.00116093,"MEAN_MOTION_DDOT":0},{"OBJECT_NAME":"FLOCK 4Q-35","OBJECT_ID":"2023-174BF","EPOCH":"2026-03-09T21:44:34.605312","MEAN_MOTION":15.50220638,"ECCENTRICITY":0.00080298,"INCLINATION":97.3893,"RA_OF_ASC_NODE":157.9669,"ARG_OF_PERICENTER":147.4932,"MEAN_ANOMALY":212.6815,"EPHEMERIS_TYPE":0,"CLASSIFICATION_TYPE":"U","NORAD_CAT_ID":58309,"ELEMENT_SET_NO":999,"REV_AT_EPOCH":13039,"BSTAR":0.00066451051,"MEAN_MOTION_DOT":0.00037604,"MEAN_MOTION_DDOT":0}]
